OBJECT_NAME,OBJECT_ID,EPOCH,MEAN_MOTION,ECCENTRICITY,INCLINATION,RA_OF_ASC_NODE,ARG_OF_PERICENTER,MEAN_ANOMALY,EPHEMERIS_TYPE,CLASSIFICATION_TYPE,NORAD_CAT_ID,ELEMENT_SET_NO,REV_AT_EPOCH,BSTAR,MEAN_MOTION_DOT,MEAN_MOTION_DDOT
TRANSPORTER-17 OBJECT BL,2026-156BL,2026-07-20T06:48:42.991488,14.92199084,.0009761,97.7538,101.5365,112.7811,247.4440,0,U,69927,999,176,.65842718E-4,.615E-5,0
TRANSPORTER-17 OBJECT BM,2026-156BM,2026-07-20T14:51:10.774080,14.92245831,.00102271,97.7575,101.8717,110.6029,249.6287,0,U,69928,999,198,.21895618E-3,.2179E-4,0
TRANSPORTER-17 OBJECT BN,2026-156BN,2026-07-20T14:50:06.686016,14.92333435,.00106257,97.7546,101.8689,109.4821,250.7547,0,U,69929,999,198,.23275615E-3,.2325E-4,0
TRANSPORTER-17 OBJECT BP,2026-156BP,2026-07-20T14:49:45.194880,14.92356761,.00104778,97.7565,101.8723,112.9775,247.2551,0,U,69930,999,198,.22035623E-3,.2199E-4,0
TRANSPORTER-17 OBJECT BQ,2026-156BQ,2026-07-20T14:49:44.362848,14.92339151,.00108061,97.7520,101.8656,106.1379,254.1030,0,U,69931,999,198,.65264603E-4,.612E-5,0
TRANSPORTER-17 OBJECT BR,2026-156BR,2026-07-20T13:13:06.468384,14.92345606,.00110339,97.7471,101.7919,104.2639,255.9806,0,U,69932,999,197,.53086344E-4,.487E-5,0
TRANSPORTER-17 OBJECT BS,2026-156BS,2026-07-20T14:49:09.613632,14.92400706,.00109469,97.7552,101.8702,108.6784,251.5625,0,U,69933,999,198,.2158732E-3,.2156E-4,0
TRANSPORTER-17 OBJECT BT,2026-156BT,2026-07-20T14:48:50.699808,14.92427553,.0010938,97.7542,101.8695,111.2652,248.9736,0,U,69934,999,198,.21698787E-3,.2169E-4,0
TRANSPORTER-17 OBJECT BU,2026-156BU,2026-07-20T11:34:59.665728,14.92480246,.00114953,97.7482,101.7287,107.1045,253.1434,0,U,69935,999,196,.15774797E-3,.1564E-4,0
TRANSPORTER-17 OBJECT BV,2026-156BV,2026-07-20T09:58:31.133568,14.92467420,.00114447,97.7481,101.6626,107.4048,252.8424,0,U,69936,999,195,.10333978E-3,.1005E-4,0
TRANSPORTER-17 OBJECT BW,2026-156BW,2026-07-20T14:45:10.481760,14.92708032,.00123809,97.7513,101.8688,106.5143,253.7438,0,U,69937,999,198,.15930551E-3,.1589E-4,0
TRANSPORTER-17 OBJECT BX,2026-156BX,2026-07-20T14:47:57.811776,14.92495419,.00115534,97.7495,101.8640,103.6429,256.6077,0,U,69938,999,198,.19933477E-3,.1992E-4,0
TRANSPORTER-17 OBJECT BY,2026-156BY,2026-07-20T13:11:07.226880,14.92502659,.00110999,97.7574,101.8094,114.8932,245.3442,0,U,69939,999,197,.78077858E-4,.746E-5,0
TRANSPORTER-17 OBJECT BZ,2026-156BZ,2026-07-20T14:46:28.825824,14.92594033,.0011844,97.7557,101.8734,109.3062,250.9439,0,U,69940,999,198,.57978216E-4,.541E-5,0
TRANSPORTER-17 OBJECT CA,2026-156CA,2026-07-19T22:46:46.388064,14.92148914,.00100794,97.7509,101.2020,106.2664,253.9664,0,U,69941,999,188,.28714763E-3,.2868E-4,0
TRANSPORTER-17 OBJECT CB,2026-156CB,2026-07-20T11:39:24.743520,14.92131172,.00099816,97.7507,101.7298,104.4823,255.7504,0,U,69942,999,196,.27742463E-3,.2768E-4,0
STARLINK-37886,2026-157A,2026-07-20T22:00:01.999584,15.80884289,.00011368,53.1593,267.1571,81.0382,197.8359,0,U,69943,999,307,-.29154533E-3,-.57886E-3,0
STARLINK-37937,2026-157B,2026-07-20T22:00:01.999584,15.80914151,.00011521,53.1594,267.1386,89.9768,197.9728,0,U,69944,999,307,-.52469735E-3,-.103225E-2,0
STARLINK-37903,2026-157C,2026-07-20T22:00:01.999584,15.80887291,.00013725,53.1595,267.1288,81.9725,210.5099,0,U,69945,999,307,-.38436296E-3,-.75949E-3,0
STARLINK-37905,2026-157D,2026-07-20T22:00:01.999584,15.80885823,.00011243,53.1596,267.0888,89.2031,222.5617,0,U,69946,999,307,-.36977498E-3,-.73109E-3,0
STARLINK-37904,2026-157E,2026-07-20T22:00:01.999584,15.80893857,.00011702,53.1595,267.0807,88.8457,226.8213,0,U,69947,999,307,-.38413892E-3,-.75926E-3,0
STARLINK-37891,2026-157F,2026-07-20T22:00:01.999584,15.80891167,.0001132,53.1595,267.0717,94.1370,225.8213,0,U,69948,999,307,-.35952817E-3,-.71136E-3,0
STARLINK-37923,2026-157G,2026-07-20T22:00:01.999584,15.80860409,.00011653,53.1643,267.0359,91.7286,245.3417,0,U,69949,999,307,-.11744736E-3,-.23802E-3,0
STARLINK-37895,2026-157H,2026-07-20T22:00:01.999584,15.80859638,.00010945,53.1596,267.0206,88.3078,256.2495,0,U,69950,999,307,-.23289308E-3,-.4639E-3,0
STARLINK-37841,2026-157J,2026-07-20T22:00:01.999584,15.80897953,.00012036,53.1596,266.9967,85.0137,270.9256,0,U,69951,999,307,-.43083509E-3,-.84999E-3,0
STARLINK-37899,2026-157K,2026-07-20T22:00:01.999584,15.80899889,.00012487,53.1594,266.9739,85.3470,281.7440,0,U,69952,999,307,-.37220989E-3,-.7363E-3,0
STARLINK-37900,2026-157L,2026-07-20T22:00:01.999584,15.80898084,.00011857,53.1595,266.9659,94.4255,276.4993,0,U,69953,999,307,-.38337138E-3,-.75792E-3,0
STARLINK-37882,2026-157M,2026-07-20T22:00:01.999584,15.80910439,.00011943,53.1595,266.9434,88.1334,293.5978,0,U,69954,999,307,-.47266417E-3,-.9315E-3,0
STARLINK-37928,2026-157N,2026-07-20T22:00:01.999584,15.80910708,.00010434,53.1594,266.9421,96.7573,285.6593,0,U,69955,999,307,-.50933662E-3,-.100241E-2,0
