TRANSPORTER-17 OBJECT BL
1 69927U 26156BL  26201.28383092  .00000615  00000+0  65843-4 0  9990
2 69927  97.7538 101.5365 0009761 112.7811 247.4440 14.92199084  1765
TRANSPORTER-17 OBJECT BM
1 69928U 26156BM  26201.61887470  .00002179  00000+0  21896-3 0  9993
2 69928  97.7575 101.8717 0010227 110.6029 249.6287 14.92245831  1987
TRANSPORTER-17 OBJECT BN
1 69929U 26156BN  26201.61813294  .00002325  00000+0  23276-3 0  9994
2 69929  97.7546 101.8689 0010625 109.4821 250.7547 14.92333435  1982
TRANSPORTER-17 OBJECT BP
1 69930U 26156BP  26201.61788420  .00002199  00000+0  22036-3 0  9990
2 69930  97.7565 101.8723 0010477 112.9775 247.2551 14.92356761  1989
TRANSPORTER-17 OBJECT BQ
1 69931U 26156BQ  26201.61787457  .00000612  00000+0  65265-4 0  9990
2 69931  97.7520 101.8656 0010806 106.1379 254.1030 14.92339151  1980
TRANSPORTER-17 OBJECT BR
1 69932U 26156BR  26201.55076931  .00000487  00000+0  53086-4 0  9990
2 69932  97.7471 101.7919 0011033 104.2639 255.9806 14.92345606  1979
TRANSPORTER-17 OBJECT BS
1 69933U 26156BS  26201.61747238  .00002156  00000+0  21587-3 0  9998
2 69933  97.7552 101.8702 0010946 108.6784 251.5625 14.92400706  1987
TRANSPORTER-17 OBJECT BT
1 69934U 26156BT  26201.61725347  .00002169  00000+0  21699-3 0  9994
2 69934  97.7542 101.8695 0010938 111.2652 248.9736 14.92427553  1985
TRANSPORTER-17 OBJECT BU
1 69935U 26156BU  26201.48263502  .00001564  00000+0  15775-3 0  9996
2 69935  97.7482 101.7287 0011495 107.1045 253.1434 14.92480246  1963
TRANSPORTER-17 OBJECT BV
1 69936U 26156BV  26201.41563812  .00001005  00000+0  10334-3 0  9993
2 69936  97.7481 101.6626 0011444 107.4048 252.8424 14.92467420  1952
TRANSPORTER-17 OBJECT BW
1 69937U 26156BW  26201.61470465  .00001589  00000+0  15931-3 0  9992
2 69937  97.7513 101.8688 0012380 106.5143 253.7438 14.92708032  1980
TRANSPORTER-17 OBJECT BX
1 69938U 26156BX  26201.61664134  .00001992  00000+0  19933-3 0  9995
2 69938  97.7495 101.8640 0011553 103.6429 256.6077 14.92495419  1987
TRANSPORTER-17 OBJECT BY
1 69939U 26156BY  26201.54938920  .00000746  00000+0  78078-4 0  9997
2 69939  97.7574 101.8094 0011099 114.8932 245.3442 14.92502659  1972
TRANSPORTER-17 OBJECT BZ
1 69940U 26156BZ  26201.61561141  .00000541  00000+0  57978-4 0  9993
2 69940  97.7557 101.8734 0011844 109.3062 250.9439 14.92594033  1983
TRANSPORTER-17 OBJECT CA
1 69941U 26156CA  26200.94914801  .00002868  00000+0  28715-3 0  9994
2 69941  97.7509 101.2020 0010079 106.2664 253.9664 14.92148914  1881
TRANSPORTER-17 OBJECT CB
1 69942U 26156CB  26201.48570305  .00002768  00000+0  27742-3 0  9990
2 69942  97.7507 101.7298 0009981 104.4823 255.7504 14.92131172  1969
STARLINK-37886          
1 69943U 26157A   26201.91668981 -.00057886  00000+0 -29155-3 0  9991
2 69943  53.1593 267.1571 0001136  81.0382 197.8359 15.80884289  3076
STARLINK-37937          
1 69944U 26157B   26201.91668981 -.00103225  00000+0 -52470-3 0  9997
2 69944  53.1594 267.1386 0001152  89.9768 197.9728 15.80914151  3078
STARLINK-37903          
1 69945U 26157C   26201.91668981 -.00075949  00000+0 -38436-3 0  9995
2 69945  53.1595 267.1288 0001372  81.9725 210.5099 15.80887291  3077
STARLINK-37905          
1 69946U 26157D   26201.91668981 -.00073109  00000+0 -36977-3 0  9990
2 69946  53.1596 267.0888 0001124  89.2031 222.5617 15.80885823  3078
STARLINK-37904          
1 69947U 26157E   26201.91668981 -.00075926  00000+0 -38414-3 0  9998
2 69947  53.1595 267.0807 0001170  88.8457 226.8213 15.80893857  3072
STARLINK-37891          
1 69948U 26157F   26201.91668981 -.00071136  00000+0 -35953-3 0  9993
2 69948  53.1595 267.0717 0001132  94.1370 225.8213 15.80891167  3076
STARLINK-37923          
1 69949U 26157G   26201.91668981 -.00023802  00000+0 -11745-3 0  9994
2 69949  53.1643 267.0359 0001165  91.7286 245.3417 15.80860409  3076
STARLINK-37895          
1 69950U 26157H   26201.91668981 -.00046390  00000+0 -23289-3 0  9999
2 69950  53.1596 267.0206 0001094  88.3078 256.2495 15.80859638  3077
STARLINK-37841          
1 69951U 26157J   26201.91668981 -.00084999  00000+0 -43084-3 0  9992
2 69951  53.1596 266.9967 0001203  85.0137 270.9256 15.80897953  3072
STARLINK-37899          
1 69952U 26157K   26201.91668981 -.00073630  00000+0 -37221-3 0  9999
2 69952  53.1594 266.9739 0001248  85.3470 281.7440 15.80899889  3075
STARLINK-37900          
1 69953U 26157L   26201.91668981 -.00075792  00000+0 -38337-3 0  9990
2 69953  53.1595 266.9659 0001185  94.4255 276.4993 15.80898084  3070
STARLINK-37882          
1 69954U 26157M   26201.91668981 -.00093150  00000+0 -47266-3 0  9990
2 69954  53.1595 266.9434 0001194  88.1334 293.5978 15.80910439  3072
STARLINK-37928          
1 69955U 26157N   26201.91668981 -.00100241  00000+0 -50934-3 0  9997
2 69955  53.1594 266.9421 0001043  96.7573 285.6593 15.80910708  3075
